[{"OBJECT_NAME":"STARLINK-4798","OBJECT_ID":"2022-114AS","EPOCH":"2026-03-09T20:27:13.810752","MEAN_MOTION":15.08845946,"ECCENTRICITY":0.00012235,"INCLINATION":53.2167,"RA_OF_ASC_NODE":283.5863,"ARG_OF_PERICENTER":83.0007,"MEAN_ANOMALY":277.1125,"EPHEMERIS_TYPE":0,"CLASSIFICATION_TYPE":"U","NORAD_CAT_ID":53858,"ELEMENT_SET_NO":999,"REV_AT_EPOCH":19313,"BSTAR":0.00019481931,"MEAN_MOTION_DOT":2.815e-5,"MEAN_MOTION_DDOT":0},{"OBJECT_NAME":"FENGYUN 1C DEB","OBJECT_ID":"1999-025BQF","EPOCH":"2026-03-08T19:58:36.101856","MEAN_MOTION":15.15826086,"ECCENTRICITY":0.00798835,"INCLINATION":98.9812,"RA_OF_ASC_NODE":89.4872,"ARG_OF_PERICENTER":83.7388,"MEAN_ANOMALY":277.2932,"EPHEMERIS_TYPE":0,"CLASSIFICATION_TYPE":"U","NORAD_CAT_ID":31327,"ELEMENT_SET_NO":999,"REV_AT_EPOCH":1401,"BSTAR":0.0018254058,"MEAN_MOTION_DOT":0.00037915,"MEAN_MOTION_DDOT":0}]
